#dV2023  1 24 22  0  0.00000000    1682       CTS   FIT  GFZ
## 2246 252000.00000000    30.00000000 59968 0.9166666666667
+    1   L65  0  0  0  0  0  0  0  0  0  0  0  0  0  0  0  0
+          0  0  0  0  0  0  0  0  0  0  0  0  0  0  0  0  0
+          0  0  0  0  0  0  0  0  0  0  0  0  0  0  0  0  0
+          0  0  0  0  0  0  0  0  0  0  0  0  0  0  0  0  0
+          0  0  0  0  0  0  0  0  0  0  0  0  0  0  0  0  0
++         0  0  0  0  0  0  0  0  0  0  0  0  0  0  0  0  0
++         0  0  0  0  0  0  0  0  0  0  0  0  0  0  0  0  0
++         0  0  0  0  0  0  0  0  0  0  0  0  0  0  0  0  0
++         0  0  0  0  0  0  0  0  0  0  0  0  0  0  0  0  0
++         0  0  0  0  0  0  0  0  0  0  0  0  0  0  0  0  0
%c L  cc GPS ccc cccc cccc cccc cccc ccccc ccccc ccccc ccccc
%c cc cc ccc ccc cccc cccc cccc cccc ccccc ccccc ccccc ccccc
%f  0.0000000  0.000000000  0.00000000000  0.000000000000000
%f  0.0000000  0.000000000  0.00000000000  0.000000000000000
%i    0    0    0    0      0      0      0      0         0
%i    0    0    0    0      0      0      0      0         0
/* CCCCCCCCCCCCCCCCCCCCCCCCCCCCCCCCCCCCCCCCCCCCCCCCCCCCCCCCCCCCCCCCCCCCCCCCCCCCC
/* C                             GFZ RSO-ORBIT                                 C
/* C DOI: https://doi.org/10.5880/GFZ_ORBIT/RSO/L65_G_v02                      C
/* C                                                                           C
/* C DORIS        RMS: not applicable                                          C
/* C GNSS-E Code  RMS: not applicable                                          C
/* C GNSS-E Phase RMS: not applicable                                          C
/* C GNSS-G Code  RMS:  48.433 [cm]   Obs.acc.:     13639 Obs.eli.:      1298  C
/* C GNSS-G Phase RMS:   4.218 [mm]   Obs.acc.:     13639 Obs.eli.:      1298  C
/* C SLR          RMS:   1.516 [cm]   Obs.acc.:        23 Obs.eli.:         0  C
/* C                                                                           C
/* CCCCCCCCCCCCCCCCCCCCCCCCCCCCCCCCCCCCCCCCCCCCCCCCCCCCCCCCCCCCCCCCCCCCCCCCCCCCC
*  2023  1 25  8 12  0.00000000
PL65   -818.917159   1580.029353  -6639.400359   7014.947694
VL65 -37178.930155  63311.994102  19562.514966 999999.999999
*  2023  1 25  8 12 30.00000000
PL65   -929.571047   1769.309145  -6577.065647   7015.416353
VL65 -36583.931267  62862.593556  21990.146618 999999.999999
*  2023  1 25  8 13  0.00000000
PL65  -1038.382844   1957.133441  -6507.483672   7015.884980
VL65 -35951.031278  62341.722652  24393.585985 999999.999999
*  2023  1 25  8 13 30.00000000
PL65  -1145.240328   2143.288400  -6430.730944   7016.353672
VL65 -35281.225691  61749.773561  26770.213181 999999.999999
*  2023  1 25  8 14  0.00000000
PL65  -1250.034325   2327.561476  -6346.891801   7016.822347
VL65 -34575.548408  61087.220422  29117.432725 999999.999999
*  2023  1 25  8 14 30.00000000
PL65  -1352.658818   2509.741672  -6256.058322   7017.290995
VL65 -33835.071147  60354.619419  31432.679582 999999.999999
*  2023  1 25  8 15  0.00000000
PL65  -1453.011058   2689.619779  -6158.330228   7017.759711
VL65 -33060.901125  59552.607254  33713.423572 999999.999999
*  2023  1 25  8 15 30.00000000
PL65  -1550.991670   2866.988616  -6053.814777   7018.228400
VL65 -32254.178287  58681.898886  35957.172151 999999.999999
*  2023  1 25  8 16  0.00000000
PL65  -1646.504744   3041.643265  -5942.626646   7018.697060
VL65 -31416.072794  57743.285860  38161.470727 999999.999999
*  2023  1 25  8 16 30.00000000
PL65  -1739.457923   3213.381293  -5824.887821   7019.165728
VL65 -30547.784383  56737.637420  40323.902731 999999.999999
*  2023  1 25  8 17  0.00000000
PL65  -1829.762496   3382.003000  -5700.727473   7019.634389
VL65 -29650.542176  55665.902054  42442.093057 999999.999999
*  2023  1 25  8 17 30.00000000
PL65  -1917.333479   3547.311643  -5570.281835   7020.103028
VL65 -28725.603092  54529.106661  44513.712321 999999.999999
*  2023  1 25  8 18  0.00000000
PL65  -2002.089699   3709.113681  -5433.694053   7020.571680
VL65 -27774.249956  53328.355080  46536.479532 999999.999999
*  2023  1 25  8 18 30.00000000
PL65  -2083.953871   3867.218995  -5291.114042   7021.040317
VL65 -26797.789979  52064.827273  48508.164347 999999.999999
*  2023  1 25  8 19  0.00000000
PL65  -2162.852662   4021.441121  -5142.698328   7021.508958
VL65 -25797.553262  50739.778673  50426.589827 999999.999999
*  2023  1 25  8 19 30.00000000
PL65  -2238.716764   4171.597473  -4988.609885   7021.977582
VL65 -24774.890973  49354.538974  52289.635423 999999.999999
*  2023  1 25  8 20  0.00000000
PL65  -2311.480952   4317.509564  -4829.017959   7022.446194
VL65 -23731.173389  47910.510600  54095.239419 999999.999999
*  2023  1 25  8 20 30.00000000
PL65  -2381.084136   4459.003220  -4664.097893   7022.914811
VL65 -22667.788116  46409.167400  55841.401077 999999.999999
*  2023  1 25  8 21  0.00000000
PL65  -2447.469416   4595.908795  -4494.030935   7023.383397
VL65 -21586.138475  44852.053372  57526.182964 999999.999999
*  2023  1 25  8 21 30.00000000
PL65  -2510.584120   4728.061380  -4319.004049   7023.851995
VL65 -20487.641909  43240.781221  59147.713546 999999.999999
*  2023  1 25  8 22  0.00000000
PL65  -2570.379850   4855.301002  -4139.209710   7024.320575
VL65 -19373.728082  41577.030376  60704.190242 999999.999999
*  2023  1 25  8 22 30.00000000
PL65  -2626.812510   4977.472824  -3954.845695   7024.789175
VL65 -18245.836140  39862.543323  62193.881347 999999.999999
*  2023  1 25  8 23  0.00000000
PL65  -2679.842335   5094.427327  -3766.114872   7025.257798
VL65 -17105.412867  38099.123822  63615.124141 999999.999999
*  2023  1 25  8 23 30.00000000
PL65  -2729.433910   5206.020500  -3573.224994   7025.726367
VL65 -15953.912560  36288.639579  64966.326107 999999.999999
*  2023  1 25  8 24  0.00000000
PL65  -2775.556193   5312.114029  -3376.388475   7026.194943
VL65 -14792.795034  34433.021155  66245.971046 999999.999999
*  2023  1 25  8 24 30.00000000
PL65  -2818.182526   5412.575479  -3175.822165   7026.663527
VL65 -13623.523104  32534.257144  67452.621139 999999.999999
*  2023  1 25  8 25  0.00000000
PL65  -2857.290642   5507.278469  -2971.747105   7027.132116
VL65 -12447.561849  30594.392257  68584.917542 999999.999999
*  2023  1 25  8 25 30.00000000
PL65  -2892.862673   5596.102829  -2764.388293   7027.600670
VL65 -11266.376703  28615.525731  69641.582940 999999.999999
*  2023  1 25  8 26  0.00000000
PL65  -2924.885142   5678.934772  -2553.974435   7028.069210
VL65 -10081.431050  26599.809334  70621.423391 999999.999999
*  2023  1 25  8 26 30.00000000
PL65  -2953.348958   5755.667036  -2340.737689   7028.537728
VL65  -8894.184235  24549.445148  71523.330706 999999.999999
*  2023  1 25  8 27  0.00000000
PL65  -2978.249399   5826.199042  -2124.913407   7029.006227
VL65  -7706.088668  22466.682173  72346.284481 999999.999999
*  2023  1 25  8 27 30.00000000
PL65  -2999.586085   5890.437021  -1906.739870   7029.474729
VL65  -6518.587403  20353.812661  73089.352972 999999.999999
*  2023  1 25  8 28  0.00000000
PL65  -3017.362951   5948.294142  -1686.458021   7029.943224
VL65  -5333.113030  18213.168620  73751.693047 999999.999999
*  2023  1 25  8 28 30.00000000
PL65  -3031.588212   5999.690628  -1464.311198   7030.411716
VL65  -4151.087444  16047.120614  74332.550332 999999.999999
*  2023  1 25  8 29  0.00000000
PL65  -3042.274334   6044.553867  -1240.544867   7030.880264
VL65  -2973.919963  13858.075088  74831.262754 999999.999999
*  2023  1 25  8 29 30.00000000
PL65  -3049.437984   6082.818516  -1015.406341   7031.348810
VL65  -1803.003507  11648.468634  75247.258393 999999.999999
*  2023  1 25  8 30  0.00000000
PL65  -3053.099984   6114.426586   -789.144521   7031.817347
VL65   -639.715834   9420.770394  75580.052050 999999.999999
*  2023  1 25  8 30 30.00000000
PL65  -3053.285271   6139.327549   -562.009625   7032.285882
VL65    514.579956   7177.483132  75829.252873 999999.999999
*  2023  1 25  8 31  0.00000000
PL65  -3050.022840   6157.478424   -334.252892   7032.754544
VL65   1658.540533   4921.135481  75994.568989 999999.999999
*  2023  1 25  8 31 30.00000000
PL65  -3043.345684   6168.843850   -106.126294   7033.223135
VL65   2790.845498   2654.276634  76075.805501 999999.999999
*  2023  1 25  8 32  0.00000000
PL65  -3033.290721   6173.396139    122.117759   7033.691705
VL65   3910.198226    379.472968  76072.863465 999999.999999
*  2023  1 25  8 32 30.00000000
PL65  -3019.898720   6171.115324    350.226702   7034.160282
VL65   5015.326654  -1900.694249  75985.739553 999999.999999
*  2023  1 25  8 33  0.00000000
PL65  -3003.214231   6161.989203    577.948105   7034.628763
VL65   6104.985686  -4183.631431  75814.527187 999999.999999
*  2023  1 25  8 33 30.00000000
PL65  -2983.285491   6146.013367    805.029964   7035.097151
VL65   7177.960526  -6466.737033  75559.416563 999999.999999
*  2023  1 25  8 34  0.00000000
PL65  -2960.164336   6123.191218   1031.220988   7035.565544
VL65   8233.068160  -8747.405600  75220.693058 999999.999999
*  2023  1 25  8 34 30.00000000
PL65  -2933.906102   6093.533977   1256.270885   7036.033940
VL65   9269.157269 -11023.030650  74798.735822 999999.999999
*  2023  1 25  8 35  0.00000000
PL65  -2904.569531   6057.060683   1479.930639   7036.502314
VL65  10285.108821 -13291.006835  74294.017930 999999.999999
*  2023  1 25  8 35 30.00000000
PL65  -2872.216673   6013.798185   1701.952796   7036.970754
VL65  11279.837834 -15548.733692  73707.106577 999999.999999
*  2023  1 25  8 36  0.00000000
PL65  -2836.912778   5963.781122   1922.091742   7037.439186
VL65  12252.294808 -17793.619287  73038.661429 999999.999999
*  2023  1 25  8 36 30.00000000
PL65  -2798.726190   5907.051892   2140.103979   7037.907463
VL65  13201.466933 -20023.082911  72289.433755 999999.999999
*  2023  1 25  8 37  0.00000000
PL65  -2757.728237   5843.660613   2355.748401   7038.375659
VL65  14126.379337 -22234.558783  71460.265289 999999.999999
EOF
